{"type": "FeatureCollection", "name": "xian_ring_expressway_study_area", "crs": {"type": "name", "properties": {"name": "urn:ogc:def:crs:OGC:1.3:CRS84"}}, "features": [{"type": "Feature", "properties": {"name": "西安绕城高速内侧研究区", "source": "OSM motorway 西安绕城高速 / G3002", "ref": "G3002", "buffer_m": 80, "area_km2": 451.77}, "geometry": {"type": "Polygon", "coordinates": [[[108.79198854502727, 34.3190446731621], [108.79353859633312, 34.32077955739788], [108.7935462692718, 34.320787890069504], [108.79433433624418, 34.32161847828787], [108.7943451506503, 34.32163110385289], [108.79435308391508, 34.321640070596246], [108.79436435998475, 34.32165241326724], [108.79505382071444, 34.32248935693796], [108.79506306175287, 34.32250014576617], [108.79558261572663, 34.32308381073971], [108.7955835857805, 34.32308489624656], [108.79664401318016, 34.32426691212719], [108.7989443492763, 34.326830734774255], [108.80061678250722, 34.328702229130656], [108.80061770196613, 34.328703254239166], [108.80165923283403, 34.32986018963724], [108.80166189820362, 34.32986311922041], [108.80242463237632, 34.33069267603703], [108.8024275140266, 34.330695833981835], [108.80391507189829, 34.33233844287061], [108.80392792260726, 34.332351951518355], [108.80406626248752, 34.33249046607018], [108.80407647587579, 34.33250177855172], [108.80408569793117, 34.33251163410347], [108.8040963743962, 34.332522646474814], [108.80444068579236, 34.332915806457486], [108.80445349200056, 34.332929709590566], [108.80491080169872, 34.33340205598861], [108.80491168305335, 34.333402963324964], [108.8056827257514, 34.33419412359373], [108.80569691800156, 34.3342079601807], [108.80625350499609, 34.334723757795686], [108.80625957609709, 34.33472926838712], [108.80675824690653, 34.33517261700009], [108.8067711157356, 34.3351835831116], [108.80763967262703, 34.3358930180462], [108.8076511657056, 34.33590206980948], [108.80840302296888, 34.33647299989244], [108.80841424484711, 34.33648123144803], [108.80922692723676, 34.337056990044005], [108.80924535686579, 34.33706934304664], [108.81011161352887, 34.33761831644047], [108.81012439393463, 34.33762611370855], [108.81155769906975, 34.338467583670955], [108.81158301987136, 34.33848137652678], [108.81289852101918, 34.339144721694225], [108.8129213100983, 34.339155446209716], [108.81432625826498, 34.33977091483447], [108.81434026001897, 34.33977678282139], [108.8155493566913, 34.34026096355591], [108.81557561360167, 34.34027060341389], [108.81684323651228, 34.34069497858068], [108.81686224079927, 34.34070091579171], [108.81839386781168, 34.341145756924], [108.81842237437054, 34.341153132984644], [108.81947933105481, 34.34139383570062], [108.8194825667388, 34.341394561426696], [108.82032943327532, 34.34158159350179], [108.82035521061603, 34.341586592839086], [108.82198616078307, 34.34185963593929], [108.82200301033285, 34.341862170585586], [108.82368940281057, 34.342087410637696], [108.82369691066862, 34.34208835752264], [108.82566645348031, 34.3423221320172], [108.82755519025952, 34.342547708664156], [108.83054143838433, 34.34290759983155], [108.83054621950154, 34.342908153501206], [108.83306438786705, 34.343187916775996], [108.83309158187157, 34.34319142542596], [108.83569064990351, 34.34357365890637], [108.83571107659837, 34.34357694339675], [108.83838095837324, 34.34404312432446], [108.83838530170051, 34.344043895558634], [108.83896794695654, 34.34414908176855], [108.83896907066564, 34.344149333256645], [108.83899912809017, 34.34415511698312], [108.83900027039797, 34.34415530152779], [108.83933072505744, 34.344222842491675], [108.8393363132455, 34.3442239521253], [108.84022712341209, 34.34439566978903], [108.84023965067159, 34.344398193411216], [108.84175866782313, 34.34471745564433], [108.84264682957792, 34.3449040918506], [108.84267970920641, 34.34491176849842], [108.84586556789095, 34.34573105200583], [108.84587992835321, 34.34573489694191], [108.84820880978637, 34.34638327077358], [108.84823580335286, 34.34639133939879], [108.84961185065518, 34.34683131619334], [108.84961187207921, 34.34683132254584], [108.85194027931408, 34.34757586385378], [108.85195302390628, 34.34757975024188], [108.85525603559464, 34.348538589911726], [108.85526968092489, 34.348542341733136], [108.85598200504842, 34.348727389021114], [108.85843753469311, 34.349365443935454], [108.85845823663023, 34.34937035858144], [108.86198016712488, 34.350128529269384], [108.86199575717663, 34.350131631373024], [108.86517539844785, 34.35071296830329], [108.865213520438, 34.3507199065055], [108.86522502551645, 34.350721865334286], [108.869182579418, 34.351349455061474], [108.86918308870801, 34.35134953556299], [108.87322046174292, 34.35198563261616], [108.87322378138774, 34.35198614453155], [108.87802863437867, 34.352711044798454], [108.88059375840302, 34.35310483587547], [108.88275828788969, 34.353442597180425], [108.88276753610221, 34.35344409793586], [108.88514058203361, 34.35384401361265], [108.88515921269433, 34.35384738999328], [108.88713942231713, 34.354231572709885], [108.88714025321622, 34.35423177014567], [108.88717049306673, 34.35423798996237], [108.88717132819863, 34.35423813553366], [108.88759742791507, 34.35433080179796], [108.88759829386946, 34.35433097172444], [108.8894519289588, 34.354735746119935], [108.88946405076528, 34.35473849726194], [108.89110940641218, 34.355126132404344], [108.89112691021208, 34.35513047741744], [108.8948600427065, 34.356104741490135], [108.89489370538062, 34.356114374012144], [108.8972351464948, 34.356844431725506], [108.89985774225727, 34.35767112603794], [108.89986296728306, 34.357672794437335], [108.9032758048495, 34.35877654786922], [108.90667396768546, 34.3598761472975], [108.90667457087672, 34.359876328642564], [108.91176920269984, 34.361528557453084], [108.9117698629865, 34.36152875645437], [108.91579677221279, 34.36283789651289], [108.91580061739603, 34.36283912912946], [108.91798885123792, 34.363530700644], [108.91799427864565, 34.36353238159653], [108.91962394817526, 34.36402685821503], [108.91963146218751, 34.36402907339874], [108.92034458965786, 34.36423320502611], [108.92035317336487, 34.36423571796122], [108.9215053172875, 34.3645805504487], [108.92154615881076, 34.364590919887824], [108.92289678345531, 34.36487432744665], [108.92291206904288, 34.36487729176805], [108.92409670902455, 34.365088343867384], [108.92412104698674, 34.36509208041345], [108.92484713346145, 34.365185858235634], [108.92484793506823, 34.36518599558783], [108.92487869555431, 34.365190315440444], [108.92487950693132, 34.36519040460782], [108.92544344870072, 34.365275991494435], [108.92548669043774, 34.365280703956536], [108.92652827564777, 34.36535023235506], [108.92654319260396, 34.36535137172056], [108.92782164059109, 34.365461355269666], [108.92783913845028, 34.36546256399284], [108.92878968677415, 34.36551216784956], [108.9288104304635, 34.36551283712267], [108.93056928470234, 34.36553461219336], [108.93057475996989, 34.365534651283916], [108.93242756145531, 34.36553817024981], [108.93242886802508, 34.36553814688663], [108.93869020225175, 34.36555829895624], [108.93869578885808, 34.36555822171328], [108.93922346207036, 34.36556348966548], [108.93923111582474, 34.36556351001024], [108.94057345984741, 34.36555724573813], [108.94454472767426, 34.365538824517806], [108.94454847673465, 34.36553873828668], [108.94754898489778, 34.36553727857875], [108.94755077023828, 34.365537242852284], [108.95192998181436, 34.365543040481406], [108.95335357264132, 34.365544768105565], [108.95335483232624, 34.36554474468206], [108.9555505233295, 34.365550134840454], [108.95555327403382, 34.36555013435207], [108.96199249398295, 34.36553204029431], [108.96199682374193, 34.36553195032155], [108.9694197207726, 34.36554761380954], [108.96943270008524, 34.36554747995455], [108.9707636362983, 34.365517213595275], [108.97077851184476, 34.36551666305158], [108.97209739172072, 34.36544900311577], [108.97211252669923, 34.36544800566497], [108.97371897986106, 34.365318611097386], [108.97373617262772, 34.36531693818932], [108.97418164290984, 34.36526609333268], [108.97516871561935, 34.36515346116369], [108.97519024729102, 34.36515054455245], [108.97638782836057, 34.36496254655565], [108.976407704627, 34.364959024160534], [108.97819149783646, 34.36460645158104], [108.97820318643, 34.3646039983602], [108.97986020930767, 34.36423581492458], [108.97987020498869, 34.36423348721152], [108.98103676617296, 34.36394929007061], [108.9829479831771, 34.363486225153885], [108.98295444411596, 34.363484689746], [108.98349718043424, 34.36335822401191], [108.98349796550679, 34.3633580404173], [108.98407794354081, 34.36322192007981], [108.98409321632626, 34.3632185013813], [108.98479123547342, 34.36306978388984], [108.98480644312492, 34.363066705126464], [108.98550339885644, 34.362932957990076], [108.98551483565662, 34.362930853075575], [108.98613134558002, 34.36282220909101], [108.98614565902973, 34.362819825672716], [108.9868177454882, 34.36271440814594], [108.98682569054274, 34.36271320429567], [108.98740932079393, 34.36262787475818], [108.98743305519915, 34.36262477855322], [108.98801657349581, 34.36255779632048], [108.98802506950906, 34.362556868349735], [108.98874206651276, 34.36248253883336], [108.98876663170881, 34.36248038450763], [108.98917270945427, 34.36245123121812], [108.98917482912286, 34.36245107469232], [108.98955989245356, 34.36242184937287], [108.98957681247505, 34.362420749742654], [108.99011241357447, 34.36239177632075], [108.99058706986115, 34.362367572322015], [108.99060531035855, 34.362366855337996], [108.99115271994533, 34.36235172642421], [108.99117161316029, 34.3623514322492], [108.99171251385918, 34.36234954003981], [108.99251739850037, 34.36234954003981], [108.99252340739187, 34.36234956307638], [108.99339480330212, 34.36235624464264], [108.99340321830572, 34.36235635435727], [108.99503907720398, 34.362386469506795], [108.9950477170024, 34.36238655709597], [108.99620905434539, 34.36238872689822], [108.99621657574156, 34.36238868680993], [108.99736569282118, 34.36237428956513], [108.99737435260363, 34.362374109247035], [108.9981609551842, 34.36235120328511], [108.99816239489216, 34.362351159373134], [108.99888348310952, 34.36232817016517], [108.99888865390913, 34.362327979657174], [108.99982363107259, 34.36228889066258], [108.99983068112945, 34.362288548129605], [109.00056986907124, 34.36224761878263], [109.00057493227521, 34.36224731371281], [109.0013348889639, 34.36219781158353], [109.00133747058626, 34.36219763698164], [109.00217985592842, 34.362138561883555], [109.00219187318962, 34.362137579099404], [109.00303275399445, 34.36205898568929], [109.00303687002993, 34.36205858444267], [109.00456424561952, 34.36190354599464], [109.00457941889005, 34.36190177950599], [109.00694049703618, 34.361591511520416], [109.0069552384649, 34.36158935732449], [109.01030429155009, 34.36105034727245], [109.0103217644459, 34.36104722379763], [109.01172059411265, 34.36077202322241], [109.01172606009638, 34.36077091674646], [109.0132886446438, 34.36044567962802], [109.01329787619173, 34.36044366833865], [109.01358047345894, 34.36037933275726], [109.01359519517156, 34.360375747799104], [109.0152242494528, 34.35995294889609], [109.01621820573227, 34.3596949444599], [109.01625009174397, 34.359685519918536], [109.01705102740854, 34.359419147988], [109.01707410954701, 34.35941188975057], [109.01724910508872, 34.35935998847144], [109.01916481463984, 34.35879231160112], [109.019171028871, 34.358790499518754], [109.02025872157101, 34.35847844753622], [109.02026816451404, 34.358475805394626], [109.02133886958164, 34.35818377688628], [109.02138201165234, 34.358173364972735], [109.0228873697314, 34.357856400371915], [109.02289326350696, 34.357855183659495], [109.02460327073311, 34.35750919385922], [109.02462743057312, 34.35750470787731], [109.02581915711397, 34.35730310747082], [109.02584463124371, 34.357299234693656], [109.02738531027617, 34.35709122311885], [109.02740371058813, 34.357088962444074], [109.02866129596354, 34.35694967292466], [109.0286813826383, 34.356947711401105], [109.03827562891188, 34.35613609510646], [109.0440584347147, 34.355646897643986], [109.04406082723379, 34.35564668968213], [109.04451334370562, 34.355606302771086], [109.04451336097404, 34.35560630087208], [109.04784408564196, 34.35530908857842], [109.04786626793027, 34.35530662716216], [109.05017747681846, 34.35499960056217], [109.05019350806212, 34.3549972139], [109.05164911969972, 34.35475701363847], [109.05167238561141, 34.35475261905949], [109.05297209732284, 34.354475712549984], [109.0529868928466, 34.35447232773942], [109.05485131787708, 34.354016203182056], [109.0548771048339, 34.35400915975312], [109.05549536030524, 34.35382230921066], [109.05552610420233, 34.35381189597837], [109.0571509213412, 34.353200399342036], [109.05715572482544, 34.353198562208206], [109.05778545235835, 34.35295384791237], [109.05779319811359, 34.35295075997626], [109.0583722239298, 34.35271404518262], [109.05837985129321, 34.3527108492436], [109.05924073017847, 34.352341269605766], [109.05924851990535, 34.35233784182731], [109.05962758043802, 34.35216692825547], [109.05964074275869, 34.35216074488087], [109.06054797706585, 34.351717067351274], [109.06055861713399, 34.35171169191593], [109.06169460549921, 34.351119100137645], [109.06170937294765, 34.351111044518944], [109.06282863363192, 34.35047308040834], [109.06285364111953, 34.35045770516014], [109.0638016089675, 34.349830056533236], [109.06381429593145, 34.34982132505293], [109.06582982766963, 34.34837985452173], [109.06585839385731, 34.34835748302311], [109.06632979449017, 34.3479534253378], [109.066336120657, 34.347948077383656], [109.0668287959806, 34.34753730336063], [109.06684013684942, 34.347527484996355], [109.0672975218794, 34.34711628817198], [109.06731648755881, 34.34709805475872], [109.06780975229387, 34.34659060363019], [109.06782886582357, 34.34657182738105], [109.0686321013828, 34.34581809771625], [109.06865366466155, 34.34579619369801], [109.06941504238772, 34.34495790913081], [109.06942487149846, 34.34494664300369], [109.07015562442682, 34.34407423342477], [109.07016313099926, 34.344064970066306], [109.07087737109171, 34.343153529069205], [109.07088366188235, 34.34314525907081], [109.07493729129492, 34.33765330937946], [109.07494144162368, 34.33764756790108], [109.07725890208812, 34.334373394313346], [109.0772678142099, 34.3343611739061], [109.07963048553317, 34.331215600264414], [109.07963492561674, 34.33120955813966], [109.0819263460466, 34.32802168525057], [109.08193364329479, 34.32801113425823], [109.08334664776959, 34.32588619671121], [109.08335704140472, 34.325869563269094], [109.08441342220661, 34.32406634580729], [109.0844217498651, 34.32405126185624], [109.08506286338584, 34.322816089018104], [109.08506767091266, 34.32280644709677], [109.08548264294254, 34.32193904712933], [109.08548401545897, 34.32193614180728], [109.08601272978017, 34.32080263277267], [109.08601818758761, 34.32079026937842], [109.08629296371596, 34.32013100120216], [109.08629543491224, 34.32012489714609], [109.0865585559379, 34.31945532980138], [109.08656234961913, 34.31944517310234], [109.08695216429874, 34.31834473413686], [109.08695464051752, 34.31833746485784], [109.08702458840075, 34.318123640526295], [109.08725359683068, 34.31743504264644], [109.08725712443002, 34.31742372780469], [109.08752012391713, 34.31652037319731], [109.08752147731309, 34.31651558241143], [109.08768352583974, 34.31592392829435], [109.0876849160967, 34.31591867225248], [109.08783477828223, 34.31533132964135], [109.08783693519686, 34.31532231409662], [109.08800524574748, 34.31456896113987], [109.08800742534666, 34.314558325398195], [109.08811335110236, 34.31399048563038], [109.08811783352833, 34.31395497003573], [109.088118087729, 34.31391925969439], [109.08811411122869, 34.31388370239562], [109.0881059427552, 34.313848644438195], [109.08809366186277, 34.31381442725771], [109.08807738815713, 34.31378138410128], [109.08805728013077, 34.313749836782], [109.08803353361928, 34.313720092544735], [109.08800637989408, 34.313692441073826], [109.08797608341008, 34.3136671516718], [109.08794293923005, 34.31364447063658], [109.08790727015095, 34.31362461886273], [109.08746735112419, 34.31340511945153], [109.08746501288883, 34.31340396104181], [109.0865378603545, 34.31294789470022], [109.08652236218938, 34.3129400269008], [109.08552947393696, 34.312420061229965], [109.08552498115982, 34.312417687057], [109.08482705889185, 34.31204554162136], [109.08481970571988, 34.312041562478356], [109.08422108316618, 34.31171283278065], [109.08421238625714, 34.31170797305005], [109.08269028579102, 34.31084260176532], [109.08267040178309, 34.3108308370474], [109.08203475508407, 34.3104396469531], [109.08203296816585, 34.31043855310349], [109.08079633252213, 34.309685593126424], [109.08077929849668, 34.309674860631006], [109.07951758104721, 34.30885250012738], [109.07951471407414, 34.30885062070171], [109.0786790574015, 34.30829965132892], [109.0786752463889, 34.308296874755754], [109.07865442792064, 34.30828263097314], [109.07865041753338, 34.30828005622469], [109.07838179809306, 34.308089388712794], [109.07837422726163, 34.30808391016123], [109.07624287571555, 34.30651160164363], [109.07623986347227, 34.306509400050565], [109.07206428254861, 34.30348580669811], [109.07205630640648, 34.30348016996516], [109.0714830968711, 34.30308486323454], [109.07148246355831, 34.303084427317856], [109.07091124307668, 34.302692005513364], [109.07089791979499, 34.30268260005196], [109.07057532543776, 34.30244861238791], [109.07056763908184, 34.30244316659361], [109.06969709842154, 34.301840751268095], [109.06969352697674, 34.30183826181531], [109.06934585495172, 34.30159415568381], [109.06932501509918, 34.301580409084885], [109.06900631918082, 34.30138308652653], [109.0689954394453, 34.30137656471286], [109.06896489455994, 34.3013588435241], [109.06895900692557, 34.30135548711666], [109.06792744975291, 34.300777713082155], [109.06791314709368, 34.30077003631005], [109.06704176147178, 34.30032218034755], [109.06702838847309, 34.30031557910421], [109.06642236613622, 34.300028495445915], [109.06641788847145, 34.300026403332694], [109.06614787916847, 34.29990198544431], [109.06613404890375, 34.29989588067948], [109.06548900000541, 34.2996234197269], [109.06547793443447, 34.299618908703955], [109.06468002196937, 34.299305216763706], [109.06465780479033, 34.29929710526432], [109.06328888133456, 34.29883476750516], [109.0632415670806, 34.29882136750087], [109.06104035808212, 34.29831336634096], [109.06102089472587, 34.29830927475106], [109.05850883445842, 34.29783224452644], [109.05846284571086, 34.29782564913334], [109.05687380926366, 34.29767026772317], [109.0568535157284, 34.29766868367176], [109.05533300514729, 34.29757985993637], [109.05531092880726, 34.297579038789934], [109.05018850224988, 34.29749696390755], [109.05013532097887, 34.29749393464385], [109.05009329162799, 34.29748805595843], [109.05005215703552, 34.29747877715113], [109.05001231335007, 34.29746618758194], [109.04997414428811, 34.29745040849528], [109.04993801743859, 34.2974315918524], [109.04993346934744, 34.29742867008877], [109.04990112741771, 34.29740978053354], [109.0498668585833, 34.29739341231441], [109.04983094582276, 34.29737970059371], [109.04979368568951, 34.2973687585974], [109.04978694414314, 34.29736733601604], [109.04973182905988, 34.29735309466294], [109.04969256163655, 34.29733930800631], [109.04965510705155, 34.297322384603525], [109.04961982601301, 34.29730248743621], [109.04958705829665, 34.29727980812497], [109.04955711947345, 34.29725456508395], [109.04953029787067, 34.29722700141746], [109.049506851795, 34.29719738257865], [109.04948700704497, 34.29716599381315], [109.04947095473636, 34.297133137411926], [109.04945884946169, 34.297099129800074], [109.04945080780135, 34.29706429848949], [109.04944690720095, 34.29702897892474], [109.04944718522539, 34.29699351125254], [109.04945163919716, 34.296958237045956], [109.04946022622205, 34.296923496014884], [109.04947286360235, 34.29688962273445], [109.04948942963314, 34.296856943422846], [109.04950976477451, 34.29682577279972], [109.04953367318794, 34.29679641105522], [109.04956092462233, 34.29676914095897], [109.04959125663146, 34.29674422513693], [109.04962437710151, 34.29672190354208], [109.04965996706424, 34.29670239114357], [109.04969768376887, 34.296685875856475], [109.04973716398291, 34.29667251673203], [109.04977802749032, 34.29666244242591], [109.04981988075316, 34.2966557499592], [109.04986232070166, 34.296652503783996], [109.0499156252603, 34.29665279318207], [109.05066266795346, 34.2966874025932], [109.05067987997506, 34.29668791568425], [109.05486713197911, 34.29674366871868], [109.05487507352852, 34.29674381472228], [109.05651551793106, 34.29678229293209], [109.05656420276289, 34.29678495437787], [109.05804242677593, 34.29691212831959], [109.05809305742945, 34.296918162286445], [109.05998680381418, 34.297207328641655], [109.06000454421823, 34.2972102496577], [109.06096178879449, 34.29737937274486], [109.06101409061444, 34.29739051457209], [109.06363203065781, 34.29804542155908], [109.06369184889829, 34.29806306968084], [109.06503624560115, 34.29852214644225], [109.06506715401635, 34.29853348779532], [109.06563001708545, 34.2987546831067], [109.06564222534281, 34.29875961062996], [109.06628364215662, 34.299025394370084], [109.06629770769449, 34.299031400832575], [109.0668775977593, 34.299286469351095], [109.06690062339081, 34.29929709763325], [109.06762932530265, 34.299649647346996], [109.06764304737993, 34.29965647478513], [109.06845917411839, 34.30007392405881], [109.06847877007363, 34.30008435256738], [109.06955985287418, 34.300682547761355], [109.069577467558, 34.30069336808679], [109.06958567455378, 34.30069828778734], [109.06960358689138, 34.300708764208224], [109.06992646494689, 34.300918032272804], [109.06997508702231, 34.30094536943], [109.0700492366221, 34.30098124655151], [109.0700636964837, 34.30098793986264], [109.07021407446004, 34.30105446245729], [109.07023681182031, 34.30106382333882], [109.07046299700131, 34.301150202528], [109.07051089854366, 34.30117052552607], [109.07073028417784, 34.301273298250685], [109.07076641956237, 34.301291808539204], [109.07080070898103, 34.30131260925329], [109.07134887139011, 34.30167323724679], [109.0713676359403, 34.30168606166176], [109.0718365344903, 34.302018878867486], [109.07187873829399, 34.30205162688972], [109.07204062603775, 34.30218887748997], [109.07205751581888, 34.30220374745945], [109.07221484945148, 34.30234760354516], [109.07224095953303, 34.30237300636619], [109.072494455211, 34.30263559345725], [109.07251982634381, 34.30266369154312], [109.0725783567935, 34.302733082561936], [109.07259695310333, 34.30275354635787], [109.07263488944406, 34.30279235216841], [109.07266178223344, 34.302817391869176], [109.07271373489661, 34.30286146545547], [109.07274001429533, 34.30288198482956], [109.07693531232812, 34.305895672491864], [109.07693536115215, 34.30589562541807], [109.07694049279344, 34.30589937061034], [109.0769404430877, 34.30589941704065], [109.07901676435056, 34.30743892016936], [109.07902411485993, 34.30744424846554], [109.07929496670349, 34.30763618474922], [109.07930266634551, 34.307641514941835], [109.07946969293745, 34.30775445855069], [109.08013000262041, 34.30820087759709], [109.08013936356359, 34.30820703085212], [109.08158250119615, 34.30912918446233], [109.08208189647023, 34.30944814737214], [109.08209264766725, 34.309454797671734], [109.08269157340654, 34.30981348516328], [109.08339163398566, 34.31023221760225], [109.08340013552251, 34.31023717568035], [109.084433062685, 34.31082440116046], [109.08444264704318, 34.310829696541056], [109.08519481295535, 34.31123344208248], [109.0851956791626, 34.31123390583475], [109.08601471181223, 34.31167126110222], [109.08601711729455, 34.31167253635649], [109.08635874969687, 34.31185234291282], [109.08674146629464, 34.31205388834452], [109.08674190223489, 34.31205411761731], [109.0877246376286, 34.31257028634203], [109.08776259338286, 34.31258807477394], [109.08780249733469, 34.312602613373784], [109.0878439489863, 34.31261375622425], [109.08788653230629, 34.31262139148962], [109.08792981990524, 34.312625442538206], [109.08797337732521, 34.31262586871148], [109.0880167674002, 34.31262266573212], [109.08805955464375, 34.31261586574699], [109.08810130961973, 34.31260553700444], [109.08814161325247, 34.31259178316936], [109.08818006103273, 34.31257474228274], [109.08821626707763, 34.31255458537621], [109.08824986800353, 34.31253151475548], [109.08828052657326, 34.31250576196986], [109.08830793508066, 34.31247758548837], [109.08833181843903, 34.31244726810553], [109.08835193694196, 34.31241511410312], [109.0883680886692, 34.31238144619624], [109.08838011151317, 34.31234660229437], [109.0883878848061, 34.312310932109895], [109.0884037754593, 34.31220922211019], [109.08840515528054, 34.31219932698442], [109.08851091112923, 34.31133747535408], [109.08851211279361, 34.31132582175304], [109.08865612470014, 34.30960271978573], [109.08865671633735, 34.30959418570248], [109.08868979892596, 34.30899372208096], [109.08869121797463, 34.30897303687331], [109.08873681519114, 34.30841782927248], [109.08873782627704, 34.308392395691456], [109.08873549884665, 34.307468793729505], [109.08873589150467, 34.30744878951067], [109.08884366791888, 34.3048698396285], [109.0888443359287, 34.30485774193561], [109.0889491975664, 34.30333045714235], [109.08902081140542, 34.3022865438994], [109.08902121323102, 34.30227947111139], [109.089284632463, 34.29643030788473], [109.08928491957644, 34.29642004378129], [109.0893012768453, 34.29492226976498], [109.08930117003064, 34.29491031274369], [109.08928410003811, 34.29431744751745], [109.08928399952025, 34.29431446864053], [109.08926087243175, 34.293716805626055], [109.08926054115724, 34.29371014971078], [109.08921335931777, 34.2929348399345], [109.08921148669447, 34.29291494607486], [109.08914476248694, 34.2923918244421], [109.0891439505825, 34.292385055198295], [109.08908178214091, 34.29183165893004], [109.08907969433392, 34.291816520694894], [109.08903809339742, 34.29156226172738], [109.08903744052895, 34.2915584252481], [109.08895490392852, 34.29109143413966], [109.0889535293947, 34.29108417044155], [109.08887708882538, 34.290705311869864], [109.08887481137496, 34.29069495010605], [109.08877776371281, 34.290287046651045], [109.08877462061938, 34.290274929092455], [109.08845154946374, 34.28912524206875], [109.08844762895922, 34.28911236175126], [109.08830081068257, 34.28866470344227], [109.08829669433781, 34.28865294015921], [109.08811550865343, 34.28816602767514], [109.08811254779457, 34.288158372821165], [109.08790797780448, 34.28764896501031], [109.08790639475033, 34.287644971595476], [109.08771437546818, 34.28715420199153], [109.08770737472493, 34.28713767909681], [109.08729278841547, 34.28622988474222], [109.0872880823268, 34.28622001836075], [109.08714639994432, 34.285935232983675], [109.08714329559385, 34.28592915087998], [109.08688897541312, 34.28544325934204], [109.08688475567104, 34.28543545094129], [109.08631449501966, 34.28441273361152], [109.08630153744068, 34.28439137450652], [109.08580744378307, 34.283639764306145], [109.08580076060227, 34.28362996351375], [109.08530075978702, 34.282922609986805], [109.08528893986404, 34.28290683051202], [109.08420722814036, 34.28154215673745], [109.08419852212783, 34.28153158548959], [109.08370601850177, 34.2809557052654], [109.08369933414527, 34.280948100842224], [109.08352341640636, 34.28075334143671], [109.08351745023602, 34.280746888699845], [109.08322391022047, 34.28043669324885], [109.08321853770623, 34.280431129672046], [109.0829386887685, 34.28014711112088], [109.0829353520066, 34.28014376583351], [109.08265337809353, 34.279864502277285], [109.08264733791168, 34.27985864803679], [109.08210154949302, 34.2793409331622], [109.08208937707602, 34.279329858807], [109.08176472536248, 34.279046523155806], [109.08149582492392, 34.27881230683391], [109.0814920981018, 34.27880910051899], [109.0813085647129, 34.27865313569585], [109.08130543245963, 34.278650501065435], [109.08107278715104, 34.27845681032015], [109.08107208011475, 34.27845622302217], [109.08075638103405, 34.27819459012717], [109.0807533735553, 34.2781921218015], [109.08042138774618, 34.277922285917924], [109.08041554327771, 34.27791762325469], [109.0801777265329, 34.277731399991154], [109.08017713939819, 34.277730941085714], [109.07990484815468, 34.27751851249517], [109.07990161179652, 34.277516013213024], [109.07710066340181, 34.27537489882072], [109.0771005769059, 34.27537497718925], [109.0770962407946, 34.27537161695554], [109.07709632856523, 34.27537153957485], [109.07639382369106, 34.27481965667695], [109.07636986723163, 34.27479983538493], [109.07580770368767, 34.27430996979146], [109.07579385505768, 34.27429751823566], [109.07499305140178, 34.27355453612245], [109.07495944771975, 34.273520098823155], [109.0749359531541, 34.27349050660872], [109.07492602980042, 34.27347486246336], [109.07490191612467, 34.27344136117679], [109.07487360485973, 34.27341021756904], [109.07484142574077, 34.27338179436295], [109.07480575355106, 34.27335642259746], [109.0747967687525, 34.27335070051375], [109.07476562477413, 34.27332648840805], [109.07473042556425, 34.27329317330123], [109.07416931860556, 34.27270637498979], [109.07415674927202, 34.272691817571705], [109.07415053871705, 34.272684804415256], [109.07413755192307, 34.27267050304035], [109.07384139388884, 34.27230874157142], [109.07382893544414, 34.27229429908628], [109.07365631788181, 34.27210422786891], [109.07363664279642, 34.27208135442345], [109.07325864618997, 34.27161693888482], [109.07324442482393, 34.271598689009046], [109.07291415763632, 34.27115566692512], [109.07290286068464, 34.27113992572102], [109.07260888422782, 34.27071412207152], [109.0723280037379, 34.270306979682275], [109.07231988456621, 34.270294854285886], [109.0720523800607, 34.269883058874434], [109.07203657501387, 34.26985708685047], [109.07152227314592, 34.26895254629175], [109.0715118973045, 34.26893334268836], [109.07118146434492, 34.26828862686587], [109.07117332055923, 34.26827197871578], [109.07103055300834, 34.2679656953886], [109.07102800696768, 34.26796014334677], [109.07085635004826, 34.2675795775723], [109.07085211130206, 34.26756990222151], [109.0705536836964, 34.26686809449221], [109.07055025772337, 34.26685982647924], [109.06858957479812, 34.26200139146818], [109.06857880446285, 34.26197752424667], [109.06754957650537, 34.2599200485488], [109.06754001167907, 34.259902289645524], [109.06695766816611, 34.25889457374957], [109.06694875484193, 34.25888000205609], [109.06565601227507, 34.256879711479], [109.06565425009212, 34.256877012337945], [109.06419448821353, 34.25466353870796], [109.06418035537024, 34.25464085902702], [109.06381178352552, 34.25401370279914], [109.063803187624, 34.25399848317708], [109.06346917069223, 34.25338247160517], [109.06346680806594, 34.25337806212204], [109.06336558380676, 34.25318686074359], [109.0633583379581, 34.25317277861738], [109.06310460793931, 34.25266512027578], [109.06310423332975, 34.25266437312202], [109.0628685410571, 34.25219576375904], [109.06285866425557, 34.252174929674844], [109.06261262417564, 34.25162283004473], [109.062612454175, 34.251622882515804], [109.06261072586464, 34.251618934149384], [109.0626108965857, 34.25161888332409], [109.06250064633713, 34.25136239491895], [109.06249999255981, 34.251360884531024], [109.06227570254784, 34.25084630172059], [109.06227361715248, 34.25084144540611], [109.06198654111138, 34.25016276718699], [109.0619835787369, 34.250155980760404], [109.06160252247132, 34.24930944258953], [109.06160236564052, 34.24930949148345], [109.06160054568825, 34.24930537252464], [109.06160070321975, 34.24930532521659], [109.06141460321975, 34.24887612521658], [109.06141455062136, 34.248876141012325], [109.06141217851905, 34.248870526074576], [109.06141223142245, 34.24887051100084], [109.06098522514897, 34.24783255728992], [109.06098319030738, 34.24782772298696], [109.05895286630712, 34.24311140797756], [109.05895049214074, 34.243104904017564], [109.05894293693677, 34.243086079237266], [109.05894013786187, 34.243079693388914], [109.05812153506757, 34.240882788242445], [109.05810696176043, 34.2408365774571], [109.05747103529647, 34.23838527966551], [109.05746128766664, 34.23833741741233], [109.05720838210863, 34.236637048048536], [109.0571050660114, 34.23594237407817], [109.05710218351796, 34.23591877209348], [109.0566171121829, 34.230847481037024], [109.05661650522856, 34.230841718221114], [109.05647806538457, 34.229637978868325], [109.05647571458063, 34.22962152181186], [109.05627813425902, 34.2284649540756], [109.05627230228215, 34.228438117083456], [109.05597835120584, 34.22732646496746], [109.05597148185494, 34.22730395460215], [109.05560424276642, 34.22624431681552], [109.05559406263346, 34.226218598618026], [109.05514328404745, 34.225208626343054], [109.05513016429606, 34.22518242813861], [109.05458050230102, 34.224195708515566], [109.05456768652215, 34.224174547232195], [109.05393178547985, 34.22320491767296], [109.05391530819456, 34.22318186763571], [109.05242216437661, 34.221259056130556], [109.05239478462364, 34.22122763298234], [109.0506376664885, 34.219423219166], [109.05063483395352, 34.219420289702995], [109.0458094639984, 34.21439425387662], [109.04580424309306, 34.21438892060851], [109.04426054300662, 34.21284225566915], [109.04424716507181, 34.21282947341586], [109.04351587935454, 34.212162936954805], [109.04349195354693, 34.212142775055035], [109.0418532778872, 34.21086598573106], [109.04182691584725, 34.210847036242306], [109.04099415000752, 34.21029531708462], [109.04097060073033, 34.21028076757674], [109.03921944723758, 34.20927326799469], [109.03920247946476, 34.209263985536836], [109.03768492379963, 34.20847539051552], [109.03763783333827, 34.20845415641237], [109.03683203987192, 34.20814260297633], [109.03682859129671, 34.2081412848099], [109.03567251157641, 34.20770446471603], [109.03565925107603, 34.20769967392911], [109.03535140727625, 34.20759348125519], [109.03492906469604, 34.207447920219444], [109.03490055988955, 34.20743905515316], [109.03429490154069, 34.20727054728784], [109.03429253542717, 34.20726989525012], [109.03364841443594, 34.20709409595592], [109.03361859618201, 34.20708692788838], [109.0326205585176, 34.20687881776411], [109.03261812029729, 34.20687831557247], [109.0307377375442, 34.206495813218105], [109.03070652457848, 34.20649046445656], [109.02652926240886, 34.20590652475366], [109.02651794482252, 34.205904857205184], [109.0244081062595, 34.205578008929635], [109.02439805265446, 34.20557638339329], [109.0214624366193, 34.20508179590911], [109.02142246084344, 34.20507396285969], [109.01835443431803, 34.20438727092862], [109.0183453477241, 34.20438532439352], [109.01750442469633, 34.20421321078916], [109.01749403622064, 34.20421062863065], [109.01747360666123, 34.20420599843035], [109.0174630860053, 34.204203841555646], [109.0147646345393, 34.20353209352353], [109.01476158525305, 34.20353139626068], [109.01450500852694, 34.20346657586037], [109.01448404099142, 34.203461071523726], [109.0084355553421, 34.201813062143565], [109.0084226112237, 34.20180893978738], [109.0084055238947, 34.20180383565414], [109.00839238428385, 34.20180016657437], [109.00756676579165, 34.20153143776413], [109.00756264353731, 34.20152989789703], [109.00753721404298, 34.201521191845075], [109.00753298307791, 34.201519871900594], [109.00751290591998, 34.2015126546216], [109.0075121830392, 34.20151239540838], [109.00635726427113, 34.201099291510005], [109.0047151711184, 34.20050694553219], [109.00471194064353, 34.20050561991108], [109.0046860596658, 34.20049586111083], [109.00468273205514, 34.2004947139101], [109.00206594127584, 34.19946462004266], [109.00205067691469, 34.199458407483235], [109.00067416132015, 34.19887955684486], [109.00067300382649, 34.1988790718977], [108.99894560334555, 34.198158037981976], [108.99889899307341, 34.19813613711831], [108.99886918647907, 34.19812020902437], [108.99883743908798, 34.198106180203915], [108.9988044078244, 34.19809438163752], [108.99877832888801, 34.1980861111191], [108.99873061766512, 34.198066326986165], [108.99765358929895, 34.197563376929594], [108.99764842484579, 34.197560939448415], [108.99644511124495, 34.19698696853841], [108.99643361272031, 34.19698135312713], [108.99570937849077, 34.19661933465499], [108.99570126620938, 34.1966153783149], [108.99377464602428, 34.19569891477062], [108.993770318157, 34.19569688328546], [108.99263773093845, 34.195172327175364], [108.99263746007318, 34.195172208824246], [108.9922990179768, 34.195015330958405], [108.99229129004812, 34.195011691254464], [108.9908868090235, 34.19433966214002], [108.99088396697084, 34.19433831406131], [108.98846564293606, 34.193201232496364], [108.98845432353556, 34.19319609293927], [108.9875466648781, 34.1927983912594], [108.98754071080776, 34.19279583098842], [108.9866930767751, 34.19243820611686], [108.9866867631581, 34.19243559566825], [108.98525059072182, 34.19185382412203], [108.98521750226617, 34.191841807683986], [108.98178654645545, 34.19073453348975], [108.98176447822865, 34.19072797502642], [108.98005123191888, 34.19026173710635], [108.98003050428284, 34.19025656777754], [108.97929582956772, 34.19008980705183], [108.97929097905978, 34.19008873105174], [108.97743835203232, 34.18968727612842], [108.97741002408051, 34.18968197135429], [108.97530942098655, 34.18934950884289], [108.97529281020391, 34.18934715642269], [108.97314238223902, 34.189078181823646], [108.973109939144, 34.18907515525881], [108.9709864741041, 34.18894400180277], [108.9709859188345, 34.18894396780463], [108.97075149464594, 34.18892974002292], [108.97074096637277, 34.18892920778811], [108.97022078635602, 34.188908177804045], [108.97020979741319, 34.18890784938938], [108.96909458540293, 34.18888626654825], [108.96908919077566, 34.18888619001148], [108.9685964617719, 34.18888174404558], [108.96858478637868, 34.188881769158165], [108.96807380607464, 34.188888578337924], [108.96805793669336, 34.188888629112256], [108.96755617042793, 34.18888515400922], [108.96754078420088, 34.18888527403152], [108.96613367065942, 34.188916978960876], [108.96611379063373, 34.18891780619984], [108.96420425376917, 34.18903378186405], [108.96418260110697, 34.189035551144165], [108.96204342139877, 34.18925544206644], [108.96202317088621, 34.18925792769294], [108.96077335107621, 34.18943644526266], [108.96077337620657, 34.18943656711848], [108.9607678682806, 34.189437323592045], [108.96076784503148, 34.18943720147785], [108.95922683598776, 34.18964040267031], [108.95818088151002, 34.18977831223845], [108.95818003977546, 34.189778388216226], [108.95814919470565, 34.18978210746488], [108.9581483616733, 34.18978223342779], [108.95669020794055, 34.18994168178439], [108.95668502588985, 34.18994223087898], [108.9540406581029, 34.19021347877205], [108.95400173524007, 34.19021648895453], [108.95364073519846, 34.19023534716566], [108.95363304437252, 34.190235805933234], [108.95333100181918, 34.19025606488498], [108.9533198313626, 34.19025673337024], [108.95263341178978, 34.19029268163606], [108.9526269674305, 34.190293125898854], [108.95230023125877, 34.190307645031886], [108.9519075154909, 34.19032391254654], [108.95190751803169, 34.19032395502864], [108.95190028833105, 34.190324204342566], [108.95190028663997, 34.19032416183116], [108.9514120124787, 34.19033761428254], [108.95141028676022, 34.19033766468296], [108.95080463374083, 34.190356355222626], [108.95079370268941, 34.19035661620781], [108.95011681104778, 34.19036805186798], [108.95010489306891, 34.1903681625641], [108.94927592180007, 34.19036955813863], [108.94927206844653, 34.190369555152515], [108.94860088009797, 34.190367384937396], [108.94859231117344, 34.19036742750262], [108.94802075139698, 34.1903749544571], [108.94799332156121, 34.190374835566864], [108.94622122476336, 34.190336130027596], [108.94619526890907, 34.19033513193377], [108.9448798944404, 34.190262577312566], [108.94487635856238, 34.19026244795601], [108.9442553937559, 34.1902258154998], [108.94424916527628, 34.19022542310951], [108.94390016593186, 34.19020203706846], [108.94389618920721, 34.190201760399844], [108.94346407317524, 34.19017058908894], [108.94345734823801, 34.19017007476978], [108.9431320640504, 34.19014378318853], [108.94312936773348, 34.19014357230664], [108.94280404663508, 34.19011897893664], [108.94278797602166, 34.190117596823264], [108.9417080509603, 34.19001345477965], [108.94170803603642, 34.19001356196371], [108.94170218484904, 34.190012964236985], [108.94170220151712, 34.19001285723111], [108.94059254186016, 34.18989314208337], [108.94057871637843, 34.189891534199816], [108.93954939843155, 34.18976314126598], [108.9395399349856, 34.189762049163534], [108.9383465603915, 34.18963543587024], [108.93833730127538, 34.18963453734026], [108.93734995084871, 34.18954763941778], [108.93734897184972, 34.189547554187314], [108.93650402041831, 34.189474798304225], [108.93649053253418, 34.189473813285524], [108.93400022368603, 34.18932442243792], [108.93398522466468, 34.18932373916491], [108.93282371233607, 34.18928756107234], [108.93281233424733, 34.18928733072819], [108.93118229593671, 34.189272092131205], [108.93116571843441, 34.189272200182984], [108.93058477220558, 34.18928520716622], [108.93057889912687, 34.189285316634844], [108.9287626674131, 34.18931235951774], [108.92874638924205, 34.18931285585741], [108.9263370063253, 34.18942396242329], [108.92632307225537, 34.189424792026955], [108.92428724067838, 34.18957339215224], [108.92427241699359, 34.18957468759482], [108.92263664635004, 34.18974127396128], [108.92261311081091, 34.189744216925256], [108.91908222694973, 34.1902683371541], [108.91907816019248, 34.19026892977205], [108.91720281114802, 34.19053712184651], [108.91718131797144, 34.190539889354476], [108.9147722919209, 34.19081593605541], [108.91475436459517, 34.19081778017529], [108.91264670504737, 34.19100996585402], [108.9126308004409, 34.19101125221909], [108.91036890179707, 34.19117094264237], [108.9103499968524, 34.191172047364866], [108.90799504111062, 34.19128107217006], [108.90797828946252, 34.19128166806238], [108.90617822767165, 34.19132641795132], [108.90615875374195, 34.1913266599602], [108.90507551640529, 34.1913266599602], [108.90506761821484, 34.191326620159415], [108.90252227215252, 34.19130096605776], [108.90250285347267, 34.191300529563144], [108.90056366538164, 34.19123287650532], [108.90055780528206, 34.19123265008632], [108.89935502646206, 34.191181665434556], [108.89935328158663, 34.19118159439537], [108.8977454126143, 34.191118827424226], [108.89773862456116, 34.19111860664859], [108.89619819382249, 34.19107853249333], [108.89618861255038, 34.191078371169404], [108.89492375608448, 34.19106867726671], [108.89491949586886, 34.19106866198629], [108.8945292542048, 34.191068853328126], [108.89451585947552, 34.191069031642925], [108.89206076891173, 34.19113320924933], [108.89205035632177, 34.19113358544731], [108.89093615048542, 34.19118498160646], [108.89092696990916, 34.191185486223404], [108.8898802542104, 34.19125228314707], [108.88987684515108, 34.19125251192577], [108.88747768913615, 34.19142142316683], [108.88747399370112, 34.19142153180411], [108.8874457412678, 34.191423130244395], [108.88744206216676, 34.19142343883686], [108.88564369222203, 34.191500374449475], [108.88561444999885, 34.19150107869613], [108.88300520023118, 34.191515194570364], [108.88300240590793, 34.19151509547442], [108.88297318895462, 34.191514877073466], [108.8829703972665, 34.191514934292236], [108.87837791194606, 34.19142133776885], [108.87837462856676, 34.19142133210351], [108.87409496497692, 34.19131890715129], [108.87211034454961, 34.19127106451492], [108.87209634481098, 34.19127060173359], [108.87014453068129, 34.19118859860481], [108.8701304180658, 34.19118787797073], [108.86743689143572, 34.191025931103994], [108.86741578362334, 34.191024374770315], [108.86518310787389, 34.19082928369299], [108.86516925575883, 34.19082794855104], [108.86289497985553, 34.19058820978127], [108.86287690502807, 34.190586090181334], [108.86098049819502, 34.1903411318116], [108.86097338407397, 34.19034017936058], [108.8584369232646, 34.18998862041615], [108.85843636864163, 34.18998854385086], [108.85522553295256, 34.189547065182886], [108.85521050600414, 34.1895448484216], [108.85417515845249, 34.1893816949609], [108.85416528504203, 34.189380237015584], [108.8484518736199, 34.1885930155688], [108.84844376673095, 34.18859196386317], [108.84720645894787, 34.18844138528669], [108.8471872326144, 34.18843940844477], [108.84522308428862, 34.18827433338224], [108.84520157131203, 34.18827297307216], [108.84445122736413, 34.188241084662266], [108.84444662373738, 34.18824090936648], [108.8434046239233, 34.188205836412976], [108.84338762154026, 34.18820554112153], [108.84286780669316, 34.188204974874424], [108.8428538341783, 34.188205146530294], [108.84165946971252, 34.18823580129915], [108.84164441595519, 34.18823640514913], [108.84085481964392, 34.18827950431511], [108.84084604104675, 34.188279934041475], [108.84030310953766, 34.188303455932136], [108.84028433471576, 34.18830460896179], [108.83910677671707, 34.18839829696824], [108.83908147254951, 34.18840093542239], [108.83815256617196, 34.18852091310579], [108.8381481872874, 34.18852149773082], [108.83725710213554, 34.18864434900762], [108.83723655673656, 34.188647605863906], [108.8354600110718, 34.188966252550706], [108.8354390338205, 34.1889704710399], [108.83365969910267, 34.18936743318334], [108.83362874120687, 34.189375379654805], [108.83160736636752, 34.189963717947826], [108.8315904738675, 34.1899689642477], [108.83072158386257, 34.190256032831044], [108.83069182670849, 34.19026695319406], [108.82920012240736, 34.190870807501796], [108.82918230445404, 34.190878447917896], [108.82675621173293, 34.19197838345859], [108.82671839449289, 34.191997672971546], [108.82395813733253, 34.19357220780762], [108.82392243944967, 34.19359491308843], [108.82161423324297, 34.19522693343503], [108.82160689712214, 34.19523223907031], [108.81881465389257, 34.197297682207015], [108.8188111860769, 34.19730027520342], [108.81868678431132, 34.197394302290704], [108.81868667220256, 34.197394391287304], [108.81825797955862, 34.19771831016939], [108.81825805308688, 34.197718377567085], [108.8182534073546, 34.197721837639854], [108.81825333499476, 34.19772176937193], [108.81465010426425, 34.20036694160864], [108.8146454647222, 34.200370397016776], [108.81179179734433, 34.202526551984406], [108.81177519475682, 34.20253977927467], [108.80863827408729, 34.20517467874219], [108.80859953856587, 34.20521198807324], [108.80717652453257, 34.206788043420495], [108.80716118019622, 34.20680616874835], [108.805610766183, 34.20876222395852], [108.80558598087332, 34.208797724097735], [108.8040241395632, 34.211359108647706], [108.80401182828506, 34.21138109547449], [108.80264633064, 34.214049925556694], [108.80263337306297, 34.21407855099392], [108.80262336681922, 34.21410798491465], [108.80150214310716, 34.218032414140694], [108.8014932718929, 34.21807423970747], [108.80105703234523, 34.221190041421885], [108.80105415226154, 34.221226902621375], [108.80099090749806, 34.225021390480954], [108.80099045863508, 34.22503535671931], [108.80079913986157, 34.22905285136105], [108.8007962335094, 34.22908685207861], [108.80050032309335, 34.23148276227961], [108.80049768996761, 34.231497114582574], [108.80049573293192, 34.23150912703606], [108.80049367893655, 34.23152354468583], [108.79990813614684, 34.23441261420462], [108.79990431251196, 34.23442979001813], [108.79941218176295, 34.2364576995147], [108.799404925373, 34.236484170356505], [108.79874171330964, 34.23865197250529], [108.79873765417649, 34.23866460222866], [108.79823854318106, 34.24014585087412], [108.7982373342438, 34.240148861813495], [108.79822926876118, 34.24017135091284], [108.79822829689488, 34.24017442073897], [108.79773183240208, 34.241479041703755], [108.79772804728037, 34.241488674923296], [108.79737807858065, 34.242351984210735], [108.79737512447358, 34.24235910780784], [108.79701450790633, 34.24320951702615], [108.7970103120836, 34.24321912250863], [108.79674759850124, 34.243803361691214], [108.79674411645843, 34.24381093256185], [108.79623976196119, 34.244883471273205], [108.79623512926916, 34.24489305330597], [108.79594789175984, 34.245471214688784], [108.79594624606572, 34.24547449670628], [108.79565902883574, 34.246042057080615], [108.7956540814284, 34.24605157811007], [108.79525122468591, 34.24680695941914], [108.79524818348352, 34.24681257569243], [108.79493203621476, 34.24738767876058], [108.7949281401725, 34.247394635603925], [108.79459439086803, 34.24797974421721], [108.79459420050587, 34.247980078389055], [108.79426325038762, 34.248561813561], [108.79392530165197, 34.24915127989548], [108.79392453408154, 34.24915262585076], [108.79307479752201, 34.25065061504333], [108.79307175453563, 34.250656097528534], [108.79270935008256, 34.25132360999003], [108.7922397994401, 34.25218008140552], [108.79223372561283, 34.25219169416748], [108.79192087521714, 34.25281965132732], [108.79191954675727, 34.25282229804041], [108.79145274184535, 34.25374545553629], [108.79144665789293, 34.2537581528658], [108.79114060523563, 34.254433706930826], [108.79099031170148, 34.25476437255979], [108.79098929709033, 34.254766627481054], [108.79068573745214, 34.25544816911386], [108.79068520524102, 34.25544937053413], [108.79043814122639, 34.256010151117955], [108.79043318334747, 34.256022040088304], [108.79019165522482, 34.25663545883618], [108.79018944505792, 34.25664097215689], [108.79000371092533, 34.257096158508276], [108.79000109586723, 34.25710277586451], [108.78978811781491, 34.25765971985378], [108.78978675722797, 34.257663343499445], [108.78964367982273, 34.25805154256471], [108.78964203133711, 34.25805612297799], [108.78940364821523, 34.25873476499467], [108.78940207963032, 34.258739342085974], [108.7892192255096, 34.259286524417035], [108.78921813120193, 34.25928986076133], [108.78899719432964, 34.25997635375843], [108.78899536563186, 34.259982232835895], [108.78878938362828, 34.2606681164246], [108.78878826011596, 34.26067194608071], [108.78858464585467, 34.261382777132916], [108.78858237743476, 34.26139113368051], [108.78822873328355, 34.26276963223855], [108.788227753134, 34.26277355930459], [108.78801209492718, 34.26366232355601], [108.78801013281672, 34.26367094752311], [108.78780734047982, 34.26462545995942], [108.78780485694143, 34.2646385415801], [108.78661079098521, 34.271772711587694], [108.78660558163737, 34.27179907079441], [108.78589567029753, 34.27491092203451], [108.78589386101946, 34.274918554032645], [108.78526746115918, 34.27746465303579], [108.78524558255053, 34.277531519099966], [108.78418328280853, 34.28011457640339], [108.78403252158603, 34.28048119813175], [108.78402491449543, 34.28050165375334], [108.78232727545846, 34.285595660046496], [108.78231885515173, 34.28562591169033], [108.78162574121123, 34.28871322202795], [108.78162310229992, 34.28872629934096], [108.78132153310474, 34.29040896229364], [108.7813211607914, 34.29041108269915], [108.78105908967883, 34.29193516329745], [108.78105586082877, 34.291960054387935], [108.78091859452925, 34.293523467854854], [108.78091760280267, 34.29353988904109], [108.78087862327544, 34.29471931208659], [108.78087849237394, 34.29473375127343], [108.78089664142264, 34.29595090844264], [108.78089729131737, 34.29596669810277], [108.78091058834693, 34.2961638450339], [108.78091080792137, 34.29616729693304], [108.78096700961888, 34.29710754147235], [108.78096804471639, 34.2971203062898], [108.78108121054294, 34.29822482435275], [108.78108240591133, 34.29823484286271], [108.78124855764071, 34.299454560946664], [108.7812513118926, 34.29947128471608], [108.78140768017846, 34.300280045980806], [108.78140906572496, 34.30028680350099], [108.78165286850006, 34.301411508865726], [108.78165516644573, 34.30142133046032], [108.78168335335695, 34.301533512751696], [108.78168808836618, 34.30155034117421], [108.78241304458169, 34.30387527220554], [108.78241804554783, 34.303890018750295], [108.78265430936646, 34.30453420006808], [108.7826590245822, 34.304546291403746], [108.7829740414846, 34.305308245289574], [108.78297475933827, 34.30530996750122], [108.78322097351693, 34.30589589242738], [108.78322487663213, 34.305904804217775], [108.78351941531176, 34.306550863969335], [108.78352389156983, 34.30656028286207], [108.7840269662548, 34.30757700559509], [108.78402837105735, 34.307579811201165], [108.78428234800343, 34.30808110211792], [108.78428625314045, 34.30808857383397], [108.78452249702143, 34.30852701756851], [108.7847327352777, 34.30891778650135], [108.78473405781753, 34.30892022057153], [108.78493516339486, 34.309286735973835], [108.78493900982366, 34.309293557233985], [108.78569743068107, 34.31060291841328], [108.78571381198536, 34.310628522183094], [108.78797414885219, 34.313843725876204], [108.78825234611354, 34.31424209236883], [108.78912987417226, 34.31549879921836], [108.7891440422391, 34.315517722214366], [108.79035565207651, 34.317030071624366], [108.79035598265155, 34.31703053166571], [108.79037304359137, 34.31705243948353], [108.79037341316103, 34.31705287849243], [108.79071041021396, 34.31749819951829], [108.79072216155808, 34.31751434408918], [108.79095423374085, 34.31784605809324], [108.79096822719168, 34.31786712020722], [108.79104202167231, 34.317984251058725], [108.79105932249423, 34.318009237340625], [108.79107895915048, 34.31803299775054], [108.79198706290974, 34.31904310146006], [108.79198854502727, 34.3190446731621]]]}}]}