{"type": "FeatureCollection", "name": "xian_ring_expressway_study_area_clean", "crs": {"type": "name", "properties": {"name": "urn:ogc:def:crs:OGC:1.3:CRS84"}}, "features": [{"type": "Feature", "properties": {"name": "西安绕城高速内侧研究区", "source": "G3002 main ring, east hairpin removed", "ref": "G3002", "area_km2": 452.1}, "geometry": {"type": "Polygon", "coordinates": [[[108.79198854502727, 34.3190446731621], [108.80444068579236, 34.332915806457486], [108.8067711157356, 34.3351835831116], [108.80922692723676, 34.337056990044005], [108.81158301987136, 34.33848137652678], [108.8155493566913, 34.34026096355591], [108.81842237437054, 34.341153132984644], [108.82200301033285, 34.341862170585586], [108.83309158187157, 34.34319142542596], [108.83896794695654, 34.34414908176855], [108.84586556789095, 34.34573105200583], [108.85526968092489, 34.348542341733136], [108.86198016712488, 34.350128529269384], [108.88276753610221, 34.35344409793586], [108.8894519289588, 34.354735746119935], [108.89489370538062, 34.356114374012144], [108.91962394817526, 34.36402685821503], [108.92409670902455, 34.365088343867384], [108.92783913845028, 34.36546256399284], [108.93057475996989, 34.365534651283916], [108.9694197207726, 34.36554761380954], [108.97371897986106, 34.365318611097386], [108.976407704627, 34.364959024160534], [108.98479123547342, 34.36306978388984], [108.98801657349581, 34.36255779632048], [108.99115271994533, 34.36235172642421], [108.99983068112945, 34.362288548129605], [109.0069552384649, 34.36158935732449], [109.01329787619173, 34.36044366833865], [109.02133886958164, 34.35818377688628], [109.02584463124371, 34.357299234693656], [109.04784408564196, 34.35530908857842], [109.05164911969972, 34.35475701363847], [109.0548771048339, 34.35400915975312], [109.05715572482544, 34.353198562208206], [109.05964074275869, 34.35216074488087], [109.06285364111953, 34.35045770516014], [109.06582982766963, 34.34837985452173], [109.0672975218794, 34.34711628817198], [109.06941504238772, 34.34495790913081], [109.07087737109171, 34.343153529069205], [109.08193364329479, 34.32801113425823], [109.08441342220661, 34.32406634580729], [109.08601272978017, 34.32080263277267], [109.08783693519686, 34.31532231409662], [109.08865671633735, 34.30959418570248], [109.08928491957644, 34.29642004378129], [109.08908178214091, 34.29183165893004], [109.08845154946374, 34.28912524206875], [109.08770737472493, 34.28713767909681], [109.08631449501966, 34.28441273361152], [109.08528893986404, 34.28290683051202], [109.08208937707602, 34.279329858807], [109.07499305140178, 34.27355453612245], [109.07231988456621, 34.270294854285886], [109.07103055300834, 34.2679656953886], [109.06858957479812, 34.26200139146818], [109.06754957650537, 34.2599200485488], [109.0633583379581, 34.25317277861738], [109.05810696176043, 34.2408365774571], [109.05747103529647, 34.23838527966551], [109.0571050660114, 34.23594237407817], [109.05627813425902, 34.2284649540756], [109.05559406263346, 34.226218598618026], [109.05456768652215, 34.224174547232195], [109.05239478462364, 34.22122763298234], [109.04424716507181, 34.21282947341586], [109.04099415000752, 34.21029531708462], [109.03763783333827, 34.20845415641237], [109.03361859618201, 34.20708692788838], [109.03070652457848, 34.20649046445656], [109.02142246084344, 34.20507396285969], [109.01476158525305, 34.20353139626068], [109.00839238428385, 34.20180016657437], [109.00468273205514, 34.2004947139101], [108.99873061766512, 34.198066326986165], [108.98846564293606, 34.193201232496364], [108.98521750226617, 34.191841807683986], [108.98003050428284, 34.19025656777754], [108.97741002408051, 34.18968197135429], [108.97314238223902, 34.189078181823646], [108.96611379063373, 34.18891780619984], [108.9540406581029, 34.19021347877205], [108.95010489306891, 34.1903681625641], [108.94424916527628, 34.19022542310951], [108.93400022368603, 34.18932442243792], [108.9287626674131, 34.18931235951774], [108.92427241699359, 34.18957468759482], [108.91718131797144, 34.190539889354476], [108.9103499968524, 34.191172047364866], [108.90506761821484, 34.191326620159415], [108.8945292542048, 34.191068853328126], [108.88300520023118, 34.191515194570364], [108.86743689143572, 34.191025931103994], [108.86287690502807, 34.190586090181334], [108.8471872326144, 34.18843940844477], [108.84338762154026, 34.18820554112153], [108.83910677671707, 34.18839829696824], [108.8354390338205, 34.1889704710399], [108.83072158386257, 34.190256032831044], [108.82675621173293, 34.19197838345859], [108.82392243944967, 34.19359491308843], [108.81179179734433, 34.202526551984406], [108.80863827408729, 34.20517467874219], [108.80558598087332, 34.208797724097735], [108.80263337306297, 34.21407855099392], [108.8014932718929, 34.21807423970747], [108.80105415226154, 34.221226902621375], [108.8007962335094, 34.22908685207861], [108.80049367893655, 34.23152354468583], [108.799404925373, 34.236484170356505], [108.7970103120836, 34.24321912250863], [108.79145274184535, 34.25374545553629], [108.7892192255096, 34.259286524417035], [108.78801013281672, 34.26367094752311], [108.78660558163737, 34.27179907079441], [108.78526746115918, 34.27746465303579], [108.78402491449543, 34.28050165375334], [108.78232727545846, 34.285595660046496], [108.78105586082877, 34.291960054387935], [108.78087849237394, 34.29473375127343], [108.78108240591133, 34.29823484286271], [108.78165516644573, 34.30142133046032], [108.7826590245822, 34.304546291403746], [108.78402837105735, 34.307579811201165], [108.78571381198536, 34.310628522183094], [108.78912987417226, 34.31549879921836], [108.79198854502727, 34.3190446731621]]]}}]}